STARLINK-5622           
1 55358U 23013AD  26068.03226234 -.00000759  00000+0 -41090-4 0  9999
2 55358  43.0042 303.6370 0001303 263.0117  97.0577 15.02533237171612
LEMUR-2-ALISIA          
1 62706U 25009DB  26068.73770453  .00009177  00000+0  72005-3 0  9995
2 62706  97.7037 151.6973 0006582 159.9869 200.1615 15.01147598 85230
